IRIDIUM 116             
1 43072U 17083C   24004.92211540  .00000300  00000+0  10017-3 0  9993
2 43072  86.3977 335.7565 0002125  88.6461 271.4978 14.34216872315998
IRIDIUM 130             
1 43073U 17083D   24004.89040766  .00000294  00000+0  97842-4 0  9994
2 43073  86.3984 335.9580 0002227  82.8583 277.2866 14.34218195315934
IRIDIUM 151             
1 43074U 17083E   24004.93480278  .00000129  00000+0  39019-4 0  9995
2 43074  86.3984 335.7892 0002283  90.8500 269.2957 14.34216849315968
IRIDIUM 134             
1 43075U 17083F   24004.90309100  .00000335  00000+0  11263-3 0  9996
2 43075  86.3980 335.7971 0002245  80.1405 280.0045 14.34217057315924
IRIDIUM 137             
1 43076U 17083G   24004.91576877  .00000282  00000+0  93544-4 0  9999
2 43076  86.3984 335.8673 0001942  97.3272 262.8145 14.34216810315996
IRIDIUM 141             
1 43077U 17083H   24004.90943475  .00000351  00000+0  11824-3 0  9998
2 43077  86.3977 335.7510 0002345  88.1854 271.9610 14.34217659315990
IRIDIUM 153             
1 43078U 17083J   24004.86161358  .00000183  00000+0  58434-4 0  9998
2 43078  86.3976 304.2237 0002592  88.7260 271.4233 14.34218248317092
IRIDIUM 131             
1 43079U 17083K   24004.89674547  .00000279  00000+0  92465-4 0  9999
2 43079  86.3983 335.8829 0002274  89.8792 270.2665 14.34217172315928
